{
"type": "FeatureCollection",
"name": "obs",
"crs": { "type": "name", "properties": { "name": "urn:ogc:def:crs:EPSG::32630" } },
"features": [
{ "type": "Feature", "properties": { }, "geometry": { "type": "Point", "coordinates": [ 701078.207897109445184, 5947757.335257882252336 ] } },
{ "type": "Feature", "properties": { }, "geometry": { "type": "Point", "coordinates": [ 694135.290859711705707, 5941344.106554063037038 ] } },
{ "type": "Feature", "properties": { }, "geometry": { "type": "Point", "coordinates": [ 708880.357786173350178, 5930437.490768322721124 ] } },
{ "type": "Feature", "properties": { }, "geometry": { "type": "Point", "coordinates": [ 677253.441708176629618, 5958282.436692667193711 ] } },
{ "type": "Feature", "properties": { }, "geometry": { "type": "Point", "coordinates": [ 651200.404715992044657, 5952045.423801315017045 ] } }
]
}
